$$SOE
2460728.500000000, A.D. 2025-Feb-22 00:00:00.0000, 2.104593542519454E+09, 4.830036840093821E+09, -7.191979623840218E+08,
2460735.500000000, A.D. 2025-Mar-01 00:00:00.0000, 2.101664072520511E+09, 4.831433687438829E+09, -7.185857148112814E+08,
2460742.500000000, A.D. 2025-Mar-08 00:00:00.0000, 2.098733919585045E+09, 4.832828882930546E+09, -7.179732345749047E+08,
2460749.500000000, A.D. 2025-Mar-15 00:00:00.0000, 2.095803089091165E+09, 4.834222428141730E+09, -7.173605221932986E+08,
2460756.500000000, A.D. 2025-Mar-22 00:00:00.0000, 2.092871585246652E+09, 4.835614326788564E+09, -7.167475779365082E+08,
2460763.500000000, A.D. 2025-Mar-29 00:00:00.0000, 2.089939410227881E+09, 4.837004582898502E+09, -7.161344018910787E+08,
2460770.500000000, A.D. 2025-Apr-05 00:00:00.0000, 2.087006565013330E+09, 4.838393199861869E+09, -7.155209941073432E+08,
2460777.500000000, A.D. 2025-Apr-12 00:00:00.0000, 2.084073049985702E+09, 4.839780180471354E+09, -7.149073546442740E+08,
2460784.500000000, A.D. 2025-Apr-19 00:00:00.0000, 2.081138865115479E+09, 4.841165527068391E+09, -7.142934835670543E+08,
2460791.500000000, A.D. 2025-Apr-26 00:00:00.0000, 2.078204009997551E+09, 4.842549241593661E+09, -7.136793809391255E+08,
2460798.500000000, A.D. 2025-May-03 00:00:00.0000, 2.075268483854624E+09, 4.843931325561337E+09, -7.130650468178110E+08,
2460805.500000000, A.D. 2025-May-10 00:00:00.0000, 2.072332285535956E+09, 4.845311779966043E+09, -7.124504812555904E+08,
2460812.500000000, A.D. 2025-May-17 00:00:00.0000, 2.069395413548202E+09, 4.846690605081844E+09, -7.118356843139026E+08,
2460819.500000000, A.D. 2025-May-24 00:00:00.0000, 2.066457866292234E+09, 4.848067800099079E+09, -7.112206561099532E+08,
2460826.500000000, A.D. 2025-May-31 00:00:00.0000, 2.063519642923769E+09, 4.849443362910252E+09, -7.106053969094970E+08,
2460833.500000000, A.D. 2025-Jun-07 00:00:00.0000, 2.060580744436802E+09, 4.850817291250017E+09, -7.099899071303713E+08,
2460840.500000000, A.D. 2025-Jun-14 00:00:00.0000, 2.057641172605353E+09, 4.852189584522588E+09, -7.093741870944052E+08,
2460847.500000000, A.D. 2025-Jun-21 00:00:00.0000, 2.054700928000242E+09, 4.853560243045414E+09, -7.087582369066255E+08,
2460854.500000000, A.D. 2025-Jun-28 00:00:00.0000, 2.051760010209119E+09, 4.854929266473946E+09, -7.081420566044195E+08,
2460861.500000000, A.D. 2025-Jul-05 00:00:00.0000, 2.048818418743017E+09, 4.856296653564164E+09, -7.075256462612875E+08,
2460868.500000000, A.D. 2025-Jul-12 00:00:00.0000, 2.045876153438439E+09, 4.857662402467635E+09, -7.069090060016794E+08,
2460875.500000000, A.D. 2025-Jul-19 00:00:00.0000, 2.042933214544524E+09, 4.859026510984212E+09, -7.062921359912455E+08,
2460882.500000000, A.D. 2025-Jul-26 00:00:00.0000, 2.039989602705257E+09, 4.860388976715940E+09, -7.056750364262855E+08,
2460889.500000000, A.D. 2025-Aug-02 00:00:00.0000, 2.037045318902080E+09, 4.861749797143985E+09, -7.050577075265188E+08,
2460896.500000000, A.D. 2025-Aug-09 00:00:00.0000, 2.034100364380338E+09, 4.863108969614168E+09, -7.044401495343761E+08,
2460903.500000000, A.D. 2025-Aug-16 00:00:00.0000, 2.031154740636503E+09, 4.864466491168164E+09, -7.038223627328594E+08,
2460910.500000000, A.D. 2025-Aug-23 00:00:00.0000, 2.028208449758789E+09, 4.865822358237125E+09, -7.032043475072613E+08,
2460917.500000000, A.D. 2025-Aug-30 00:00:00.0000, 2.025261495450115E+09, 4.867176566911987E+09, -7.025861044223206E+08,
2460924.500000000, A.D. 2025-Sep-06 00:00:00.0000, 2.022313883315263E+09, 4.868529114790948E+09, -7.019676341027498E+08,
2460931.500000000, A.D. 2025-Sep-13 00:00:00.0000, 2.019365618741500E+09, 4.869880001921385E+09, -7.013489369665484E+08,
2460938.500000000, A.D. 2025-Sep-20 00:00:00.0000, 2.016416705645883E+09, 4.871229229191940E+09, -7.007300132454550E+08,
2460945.500000000, A.D. 2025-Sep-27 00:00:00.0000, 2.013467147147794E+09, 4.872576797286512E+09, -7.001108631351333E+08,
2460952.500000000, A.D. 2025-Oct-04 00:00:00.0000, 2.010516946150018E+09, 4.873922706739544E+09, -6.994914868458714E+08,
2460959.500000000, A.D. 2025-Oct-11 00:00:00.0000, 2.007566105454710E+09, 4.875266958149807E+09, -6.988718845964875E+08,
2460966.500000000, A.D. 2025-Oct-18 00:00:00.0000, 2.004614627697913E+09, 4.876609552278521E+09, -6.982520565998402E+08,
2460973.500000000, A.D. 2025-Oct-25 00:00:00.0000, 2.001662515242162E+09, 4.877950490043139E+09, -6.976320030518742E+08,
2460980.500000000, A.D. 2025-Nov-01 00:00:00.0000, 1.998709770066571E+09, 4.879289772422704E+09, -6.970117241266687E+08,
2460987.500000000, A.D. 2025-Nov-08 00:00:00.0000, 1.995756393688925E+09, 4.880627400243800E+09, -6.963912199833565E+08,
2460994.500000000, A.D. 2025-Nov-15 00:00:00.0000, 1.992802387267576E+09, 4.881963373789019E+09, -6.957704908034780E+08,
2461001.500000000, A.D. 2025-Nov-22 00:00:00.0000, 1.989847752285783E+09, 4.883297692448501E+09, -6.951495368779218E+08,
2461008.500000000, A.D. 2025-Nov-29 00:00:00.0000, 1.986892491665225E+09, 4.884630355549986E+09, -6.945283586368616E+08,
2461015.500000000, A.D. 2025-Dec-06 00:00:00.0000, 1.983936609031218E+09, 4.885961364231749E+09, -6.939069564251204E+08,
2461022.500000000, A.D. 2025-Dec-13 00:00:00.0000, 1.980980106563249E+09, 4.887290720988450E+09, -6.932853303383265E+08,
2461029.500000000, A.D. 2025-Dec-20 00:00:00.0000, 1.978022984923975E+09, 4.888618427913424E+09, -6.926634803567631E+08,
2461036.500000000, A.D. 2025-Dec-27 00:00:00.0000, 1.975065244192881E+09, 4.889944486229119E+09, -6.920414064667280E+08,
2461043.500000000, A.D. 2026-Jan-03 00:00:00.0000, 1.972106884345366E+09, 4.891268896490691E+09, -6.914191086858795E+08,
2461050.500000000, A.D. 2026-Jan-10 00:00:00.0000, 1.969147905387013E+09, 4.892591658784542E+09, -6.907965870580878E+08,
2461057.500000000, A.D. 2026-Jan-17 00:00:00.0000, 1.966188307375623E+09, 4.893912772831025E+09, -6.901738416465514E+08,
2461064.500000000, A.D. 2026-Jan-24 00:00:00.0000, 1.963228090408928E+09, 4.895232238014894E+09, -6.895508725303581E+08,
2461071.500000000, A.D. 2026-Jan-31 00:00:00.0000, 1.960267254601471E+09, 4.896550053337008E+09, -6.889276798071680E+08,
2461078.500000000, A.D. 2026-Feb-07 00:00:00.0000, 1.957305800112139E+09, 4.897866217230859E+09, -6.883042636122081E+08,
2461085.500000000, A.D. 2026-Feb-14 00:00:00.0000, 1.954343727475418E+09, 4.899180727229533E+09, -6.876806241779599E+08,
2461092.500000000, A.D. 2026-Feb-21 00:00:00.0000, 1.951381038623947E+09, 4.900493580060921E+09, -6.870567619227974E+08,
2461099.500000000, A.D. 2026-Feb-28 00:00:00.0000, 1.948417737517503E+09, 4.901804773325249E+09, -6.864326773747365E+08,
2461106.500000000, A.D. 2026-Mar-07 00:00:00.0000, 1.945453828319891E+09, 4.903114306805349E+09, -6.858083709007578E+08,
2461113.500000000, A.D. 2026-Mar-14 00:00:00.0000, 1.942489313899437E+09, 4.904422181077041E+09, -6.851838426868417E+08,
2461120.500000000, A.D. 2026-Mar-21 00:00:00.0000, 1.939524196435969E+09, 4.905728396317719E+09, -6.845590928953063E+08,
2461127.500000000, A.D. 2026-Mar-28 00:00:00.0000, 1.936558478124895E+09, 4.907032952341809E+09, -6.839341217309570E+08,
2461134.500000000, A.D. 2026-Apr-04 00:00:00.0000, 1.933592161374645E+09, 4.908335848897470E+09, -6.833089294394433E+08,
2461141.500000000, A.D. 2026-Apr-11 00:00:00.0000, 1.930625248771417E+09, 4.909637085864532E+09, -6.826835162921667E+08,
2461148.500000000, A.D. 2026-Apr-18 00:00:00.0000, 1.927657742970612E+09, 4.910936663347039E+09, -6.820578825727103E+08,
2461155.500000000, A.D. 2026-Apr-25 00:00:00.0000, 1.924689646561046E+09, 4.912234581674997E+09, -6.814320285675724E+08,
2461162.500000000, A.D. 2026-May-02 00:00:00.0000, 1.921720961932939E+09, 4.913530841285773E+09, -6.808059545662637E+08,
2461169.500000000, A.D. 2026-May-09 00:00:00.0000, 1.918751691274683E+09, 4.914825442418884E+09, -6.801796608874302E+08,
2461176.500000000, A.D. 2026-May-16 00:00:00.0000, 1.915781837076704E+09, 4.916118384762564E+09, -6.795531479542491E+08,
2461183.500000000, A.D. 2026-May-23 00:00:00.0000, 1.912811403194546E+09, 4.917409668074499E+09, -6.789264163402104E+08,
2461190.500000000, A.D. 2026-May-30 00:00:00.0000, 1.909840394392920E+09, 4.918699294096337E+09, -6.782994665685461E+08,
2461197.500000000, A.D. 2026-Jun-06 00:00:00.0000, 1.906868814053535E+09, 4.919987266488427E+09, -6.776722989037905E+08,
2461204.500000000, A.D. 2026-Jun-13 00:00:00.0000, 1.903896663712703E+09, 4.921273588983739E+09, -6.770449134555826E+08,
2461211.500000000, A.D. 2026-Jun-20 00:00:00.0000, 1.900923943927730E+09, 4.922558264687145E+09, -6.764173103098297E+08,
2461218.500000000, A.D. 2026-Jun-27 00:00:00.0000, 1.897950654773717E+09, 4.923841296180194E+09, -6.757894895594816E+08,
2461225.500000000, A.D. 2026-Jul-04 00:00:00.0000, 1.894976795970649E+09, 4.925122685656534E+09, -6.751614512985065E+08,
2461232.500000000, A.D. 2026-Jul-11 00:00:00.0000, 1.892002366894710E+09, 4.926402434956154E+09, -6.745331956134217E+08,
2461239.500000000, A.D. 2026-Jul-18 00:00:00.0000, 1.889027366566512E+09, 4.927680545524178E+09, -6.739047225790298E+08,
2461246.500000000, A.D. 2026-Jul-25 00:00:00.0000, 1.886051793640671E+09, 4.928957018297061E+09, -6.732760322606239E+08,
2461253.500000000, A.D. 2026-Aug-01 00:00:00.0000, 1.883075646444793E+09, 4.930231853468104E+09, -6.726471247311978E+08,
2461260.500000000, A.D. 2026-Aug-08 00:00:00.0000, 1.880098923282712E+09, 4.931505050096489E+09, -6.720180001264331E+08,
2461267.500000000, A.D. 2026-Aug-15 00:00:00.0000, 1.877121623416951E+09, 4.932776606010355E+09, -6.713886587388372E+08,
2461274.500000000, A.D. 2026-Aug-22 00:00:00.0000, 1.874143747969249E+09, 4.934046519225362E+09, -6.707591009814749E+08,
2461281.500000000, A.D. 2026-Aug-29 00:00:00.0000, 1.871165298449936E+09, 4.935314789506146E+09, -6.701293271235394E+08,
2461288.500000000, A.D. 2026-Sep-05 00:00:00.0000, 1.868186275049700E+09, 4.936581417202730E+09, -6.694993372278683E+08,
2461295.500000000, A.D. 2026-Sep-12 00:00:00.0000, 1.865206677148557E+09, 4.937846401857647E+09, -6.688691313115740E+08,
$$EOE